[{"OBJECT_NAME":"ONEWEB-0012","OBJECT_ID":"2019-010A","EPOCH":"2026-04-21T09:46:44.403168","MEAN_MOTION":13.16594114,"ECCENTRICITY":0.0002207,"INCLINATION":87.9073,"RA_OF_ASC_NODE":240.0626,"ARG_OF_PERICENTER":108.8098,"MEAN_ANOMALY":251.3272,"EPHEMERIS_TYPE":0,"CLASSIFICATION_TYPE":"U","NORAD_CAT_ID":44057,"ELEMENT_SET_NO":999,"REV_AT_EPOCH":34409,"BSTAR":0.00018426,"MEAN_MOTION_DOT":8.3e-07,"MEAN_MOTION_DDOT":0.0},{"OBJECT_NAME":"ONEWEB-0010","OBJECT_ID":"2019-010B","EPOCH":"2026-04-21T08:33:46.958400","MEAN_MOTION":13.16593939,"ECCENTRICITY":0.0001902,"INCLINATION":87.9073,"RA_OF_ASC_NODE":240.0685,"ARG_OF_PERICENTER":89.7256,"MEAN_ANOMALY":270.4093,"EPHEMERIS_TYPE":0,"CLASSIFICATION_TYPE":"U","NORAD_CAT_ID":44058,"ELEMENT_SET_NO":999,"REV_AT_EPOCH":34413,"BSTAR":0.00023991000000000003,"MEAN_MOTION_DOT":1.05e-06,"MEAN_MOTION_DDOT":0.0},{"OBJECT_NAME":"ONEWEB-0008","OBJECT_ID":"2019-010C","EPOCH":"2026-04-21T09:10:13.598112","MEAN_MOTION":13.16589179,"ECCENTRICITY":0.0001596,"INCLINATION":87.9073,"RA_OF_ASC_NODE":240.0599,"ARG_OF_PERICENTER":105.451,"MEAN_ANOMALY":254.6797,"EPHEMERIS_TYPE":0,"CLASSIFICATION_TYPE":"U","NORAD_CAT_ID":44059,"ELEMENT_SET_NO":999,"REV_AT_EPOCH":34425,"BSTAR":0.0017483000000000002,"MEAN_MOTION_DOT":6.81e-06,"MEAN_MOTION_DDOT":0.0},{"OBJECT_NAME":"ONEWEB-0007","OBJECT_ID":"2019-010D","EPOCH":"2026-04-21T08:55:50.424960","MEAN_MOTION":13.15548704,"ECCENTRICITY":0.0002122,"INCLINATION":87.8945,"RA_OF_ASC_NODE":270.5551,"ARG_OF_PERICENTER":93.3985,"MEAN_ANOMALY":266.7388,"EPHEMERIS_TYPE":0,"CLASSIFICATION_TYPE":"U","NORAD_CAT_ID":44060,"ELEMENT_SET_NO":999,"REV_AT_EPOCH":34390,"BSTAR":-8.4546e-05,"MEAN_MOTION_DOT":-1.9e-07,"MEAN_MOTION_DDOT":0.0},{"OBJECT_NAME":"ONEWEB-0006","OBJECT_ID":"2019-010E","EPOCH":"2026-04-21T09:01:31.011168","MEAN_MOTION":13.15550072,"ECCENTRICITY":0.0001887,"INCLINATION":87.8954,"RA_OF_ASC_NODE":270.5124,"ARG_OF_PERICENTER":90.5818,"MEAN_ANOMALY":269.5528,"EPHEMERIS_TYPE":0,"CLASSIFICATION_TYPE":"U","NORAD_CAT_ID":44061,"ELEMENT_SET_NO":999,"REV_AT_EPOCH":34395,"BSTAR":-0.00029724,"MEAN_MOTION_DOT":-9.9e-07,"MEAN_MOTION_DDOT":0.0},{"OBJECT_NAME":"ONEWEB-0011","OBJECT_ID":"2019-010F","EPOCH":"2026-04-21T10:05:24.820224","MEAN_MOTION":13.15546886,"ECCENTRICITY":0.0001651,"INCLINATION":87.8955,"RA_OF_ASC_NODE":270.5123,"ARG_OF_PERICENTER":93.6198,"MEAN_ANOMALY":266.5121,"EPHEMERIS_TYPE":0,"CLASSIFICATION_TYPE":"U","NORAD_CAT_ID":44062,"ELEMENT_SET_NO":999,"REV_AT_EPOCH":34395,"BSTAR":0.00030225,"MEAN_MOTION_DOT":1.27e-06,"MEAN_MOTION_DDOT":0.0},{"OBJECT_NAME":"ONEWEB-0013","OBJECT_ID":"2020-008A","EPOCH":"2026-04-21T09:31:14.410848","MEAN_MOTION":13.09450667,"ECCENTRICITY":0.0002434,"INCLINATION":87.8499,"RA_OF_ASC_NODE":64.2764,"ARG_OF_PERICENTER":104.602,"MEAN_ANOMALY":255.5377,"EPHEMERIS_TYPE":0,"CLASSIFICATION_TYPE":"U","NORAD_CAT_ID":45131,"ELEMENT_SET_NO":999,"REV_AT_EPOCH":29863,"BSTAR":0.0023055000000000003,"MEAN_MOTION_DOT":8.07e-06,"MEAN_MOTION_DDOT":0.0},{"OBJECT_NAME":"ONEWEB-0017","OBJECT_ID":"2020-008B","EPOCH":"2026-04-21T08:13:09.289632","MEAN_MOTION":13.10374981,"ECCENTRICITY":0.0001974,"INCLINATION":87.8843,"RA_OF_ASC_NODE":47.5794,"ARG_OF_PERICENTER":72.4491,"MEAN_ANOMALY":287.6852,"EPHEMERIS_TYPE":0,"CLASSIFICATION_TYPE":"U","NORAD_CAT_ID":45132,"ELEMENT_SET_NO":999,"REV_AT_EPOCH":30050,"BSTAR":0.0019405,"MEAN_MOTION_DOT":6.9e-06,"MEAN_MOTION_DDOT":0.0},{"OBJECT_NAME":"ONEWEB-0020","OBJECT_ID":"2020-008C","EPOCH":"2026-04-21T07:30:04.616352","MEAN_MOTION":13.10372084,"ECCENTRICITY":0.0001941,"INCLINATION":87.8869,"RA_OF_ASC_NODE":47.5797,"ARG_OF_PERICENTER":79.3808,"MEAN_ANOMALY":280.7538,"EPHEMERIS_TYPE":0,"CLASSIFICATION_TYPE":"U","NORAD_CAT_ID":45133,"ELEMENT_SET_NO":999,"REV_AT_EPOCH":30089,"BSTAR":-0.0015971,"MEAN_MOTION_DOT":-5.45e-06,"MEAN_MOTION_DDOT":0.0},{"OBJECT_NAME":"ONEWEB-0021","OBJECT_ID":"2020-008D","EPOCH":"2026-04-21T07:51:37.283040","MEAN_MOTION":13.10375434,"ECCENTRICITY":0.0002022,"INCLINATION":87.8844,"RA_OF_ASC_NODE":47.5974,"ARG_OF_PERICENTER":79.0059,"MEAN_ANOMALY":281.1296,"EPHEMERIS_TYPE":0,"CLASSIFICATION_TYPE":"U","NORAD_CAT_ID":45134,"ELEMENT_SET_NO":999,"REV_AT_EPOCH":30120,"BSTAR":1.1182e-05,"MEAN_MOTION_DOT":1.7e-07,"MEAN_MOTION_DDOT":0.0},{"OBJECT_NAME":"ONEWEB-0023","OBJECT_ID":"2020-008F","EPOCH":"2026-04-21T08:07:09.094080","MEAN_MOTION":13.10373573,"ECCENTRICITY":0.0001877,"INCLINATION":87.8847,"RA_OF_ASC_NODE":47.5744,"ARG_OF_PERICENTER":82.547,"MEAN_ANOMALY":277.587,"EPHEMERIS_TYPE":0,"CLASSIFICATION_TYPE":"U","NORAD_CAT_ID":45136,"ELEMENT_SET_NO":999,"REV_AT_EPOCH":30063,"BSTAR":0.0015463,"MEAN_MOTION_DOT":5.52e-06,"MEAN_MOTION_DDOT":0.0},{"OBJECT_NAME":"ONEWEB-0024","OBJECT_ID":"2020-008G","EPOCH":"2026-04-21T07:27:41.421312","MEAN_MOTION":13.10371788,"ECCENTRICITY":0.000195,"INCLINATION":87.887,"RA_OF_ASC_NODE":47.5692,"ARG_OF_PERICENTER":78.2448,"MEAN_ANOMALY":281.8898,"EPHEMERIS_TYPE":0,"CLASSIFICATION_TYPE":"U","NORAD_CAT_ID":45137,"ELEMENT_SET_NO":999,"REV_AT_EPOCH":30079,"BSTAR":-0.0016746,"MEAN_MOTION_DOT":-5.72e-06,"MEAN_MOTION_DDOT":0.0},{"OBJECT_NAME":"ONEWEB-0025","OBJECT_ID":"2020-008H","EPOCH":"2026-04-21T09:14:03.753024","MEAN_MOTION":13.10371114,"ECCENTRICITY":0.000196,"INCLINATION":87.8861,"RA_OF_ASC_NODE":47.5412,"ARG_OF_PERICENTER":88.0579,"MEAN_ANOMALY":272.0773,"EPHEMERIS_TYPE":0,"CLASSIFICATION_TYPE":"U","NORAD_CAT_ID":45138,"ELEMENT_SET_NO":999,"REV_AT_EPOCH":30113,"BSTAR":-0.0017496999999999999,"MEAN_MOTION_DOT":-5.98e-06,"MEAN_MOTION_DDOT":0.0},{"OBJECT_NAME":"ONEWEB-0026","OBJECT_ID":"2020-008J","EPOCH":"2026-04-21T11:16:54.431616","MEAN_MOTION":13.11415117,"ECCENTRICITY":0.0001779,"INCLINATION":87.8929,"RA_OF_ASC_NODE":32.3419,"ARG_OF_PERICENTER":72.6037,"MEAN_ANOMALY":287.5286,"EPHEMERIS_TYPE":0,"CLASSIFICATION_TYPE":"U","NORAD_CAT_ID":45139,"ELEMENT_SET_NO":999,"REV_AT_EPOCH":30367,"BSTAR":0.0010688,"MEAN_MOTION_DOT":3.91e-06,"MEAN_MOTION_DDOT":0.0},{"OBJECT_NAME":"ONEWEB-0028","OBJECT_ID":"2020-008K","EPOCH":"2026-04-21T12:04:30.053568","MEAN_MOTION":13.11417223,"ECCENTRICITY":0.0002041,"INCLINATION":87.8914,"RA_OF_ASC_NODE":32.3393,"ARG_OF_PERICENTER":93.6604,"MEAN_ANOMALY":266.4757,"EPHEMERIS_TYPE":0,"CLASSIFICATION_TYPE":"U","NORAD_CAT_ID":45140,"ELEMENT_SET_NO":999,"REV_AT_EPOCH":30119,"BSTAR":-0.001082,"MEAN_MOTION_DOT":-3.71e-06,"MEAN_MOTION_DDOT":0.0},{"OBJECT_NAME":"ONEWEB-0032","OBJECT_ID":"2020-008L","EPOCH":"2026-04-21T08:15:32.468256","MEAN_MOTION":13.10373529,"ECCENTRICITY":0.0002062,"INCLINATION":87.8844,"RA_OF_ASC_NODE":47.5805,"ARG_OF_PERICENTER":93.2049,"MEAN_ANOMALY":266.9314,"EPHEMERIS_TYPE":0,"CLASSIFICATION_TYPE":"U","NORAD_CAT_ID":45141,"ELEMENT_SET_NO":999,"REV_AT_EPOCH":30085,"BSTAR":0.0016162000000000001,"MEAN_MOTION_DOT":5.77e-06,"MEAN_MOTION_DDOT":0.0}]