ONEWEB-0012             
1 44057U 19010A   26111.40745837  .00000083  00000+0  18426-3 0  9994
2 44057  87.9073 240.0626 0002207 108.8098 251.3272 13.16594114344098
ONEWEB-0010             
1 44058U 19010B   26111.35679350  .00000105  00000+0  23991-3 0  9993
2 44058  87.9073 240.0685 0001902  89.7256 270.4093 13.16593939344130
ONEWEB-0008             
1 44059U 19010C   26111.38210183  .00000681  00000+0  17483-2 0  9999
2 44059  87.9073 240.0599 0001596 105.4510 254.6797 13.16589179344252
ONEWEB-0007             
1 44060U 19010D   26111.37211140 -.00000019  00000+0 -84546-4 0  9997
2 44060  87.8945 270.5551 0002122  93.3985 266.7388 13.15548704343903
ONEWEB-0006             
1 44061U 19010E   26111.37605337 -.00000099  00000+0 -29724-3 0  9997
2 44061  87.8954 270.5124 0001887  90.5818 269.5528 13.15550072343954
ONEWEB-0011             
1 44062U 19010F   26111.42042616  .00000127  00000+0  30225-3 0  9997
2 44062  87.8955 270.5123 0001651  93.6198 266.5121 13.15546886343953
ONEWEB-0013             
1 45131U 20008A   26111.39669457  .00000807  00000+0  23055-2 0  9995
2 45131  87.8499  64.2764 0002434 104.6020 255.5377 13.09450667298639
ONEWEB-0017             
1 45132U 20008B   26111.34246863  .00000690  00000+0  19405-2 0  9997
2 45132  87.8843  47.5794 0001974  72.4491 287.6852 13.10374981300502
ONEWEB-0020             
1 45133U 20008C   26111.31255343 -.00000545  00000+0 -15971-2 0  9993
2 45133  87.8869  47.5797 0001941  79.3808 280.7538 13.10372084300895
ONEWEB-0021             
1 45134U 20008D   26111.32751485  .00000017  00000+0  11182-4 0  9997
2 45134  87.8844  47.5974 0002022  79.0059 281.1296 13.10375434301206
ONEWEB-0023             
1 45136U 20008F   26111.33829970  .00000552  00000+0  15463-2 0  9993
2 45136  87.8847  47.5744 0001877  82.5470 277.5870 13.10373573300634
ONEWEB-0024             
1 45137U 20008G   26111.31089608 -.00000572  00000+0 -16746-2 0  9997
2 45137  87.8870  47.5692 0001950  78.2448 281.8898 13.10371788300793
ONEWEB-0025             
1 45138U 20008H   26111.38476566 -.00000598  00000+0 -17497-2 0  9990
2 45138  87.8861  47.5412 0001960  88.0579 272.0773 13.10371114301135
ONEWEB-0026             
1 45139U 20008J   26111.47007444  .00000391  00000+0  10688-2 0  9990
2 45139  87.8929  32.3419 0001779  72.6037 287.5286 13.11415117303670
ONEWEB-0028             
1 45140U 20008K   26111.50312562 -.00000371  00000+0 -10820-2 0  9994
2 45140  87.8914  32.3393 0002041  93.6604 266.4757 13.11417223301197
ONEWEB-0032             
1 45141U 20008L   26111.34412579  .00000577  00000+0  16162-2 0  9997
2 45141  87.8844  47.5805 0002062  93.2049 266.9314 13.10373529300853
